{
  "type": "FeatureCollection",
  "features": [
    {
      "type": "Feature",
      "properties": {
        "id": "AS-KAM",
        "name": "Kamrup Metropolitan",
        "state": "Assam",
        "hq": "Guwahati",
        "centroid": [91.7362, 26.1445],
        "elevation_m": 55,
        "slope_deg": 4.2,
        "flood_susceptibility": "high",
        "landslide_susceptibility": "low",
        "base_accessibility": 95,
        "active_corridors": ["NH-27", "NH-17", "NH-15"]
      },
      "geometry": {
        "type": "Polygon",
        "coordinates": [
          [[91.55, 26.05], [91.95, 26.05], [91.95, 26.28], [91.55, 26.28], [91.55, 26.05]]
        ]
      }
    },
    {
      "type": "Feature",
      "properties": {
        "id": "ML-EKH",
        "name": "East Khasi Hills",
        "state": "Meghalaya",
        "hq": "Shillong",
        "centroid": [91.8933, 25.5788],
        "elevation_m": 1525,
        "slope_deg": 24.8,
        "flood_susceptibility": "low",
        "landslide_susceptibility": "high",
        "base_accessibility": 82,
        "active_corridors": ["NH-6", "SH-5"]
      },
      "geometry": {
        "type": "Polygon",
        "coordinates": [
          [[91.65, 25.35], [92.15, 25.35], [92.15, 25.75], [91.65, 25.75], [91.65, 25.35]]
        ]
      }
    },
    {
      "type": "Feature",
      "properties": {
        "id": "AR-PAP",
        "name": "Papum Pare",
        "state": "Arunachal Pradesh",
        "hq": "Itanagar",
        "centroid": [93.6053, 27.0844],
        "elevation_m": 750,
        "slope_deg": 28.5,
        "flood_susceptibility": "moderate",
        "landslide_susceptibility": "critical",
        "base_accessibility": 68,
        "active_corridors": ["NH-415", "NH-15"]
      },
      "geometry": {
        "type": "Polygon",
        "coordinates": [
          [[93.35, 26.85], [93.95, 26.85], [93.95, 27.35], [93.35, 27.35], [93.35, 26.85]]
        ]
      }
    },
    {
      "type": "Feature",
      "properties": {
        "id": "AR-TAW",
        "name": "Tawang",
        "state": "Arunachal Pradesh",
        "hq": "Tawang",
        "centroid": [91.8687, 27.5861],
        "elevation_m": 3048,
        "slope_deg": 38.2,
        "flood_susceptibility": "low",
        "landslide_susceptibility": "critical",
        "base_accessibility": 54,
        "active_corridors": ["NH-13", "Bhalukpong-Tawang Rd"]
      },
      "geometry": {
        "type": "Polygon",
        "coordinates": [
          [[91.55, 27.40], [92.15, 27.40], [92.15, 27.85], [91.55, 27.85], [91.55, 27.40]]
        ]
      }
    },
    {
      "type": "Feature",
      "properties": {
        "id": "NL-KOH",
        "name": "Kohima",
        "state": "Nagaland",
        "hq": "Kohima",
        "centroid": [94.1086, 25.6751],
        "elevation_m": 1444,
        "slope_deg": 29.1,
        "flood_susceptibility": "low",
        "landslide_susceptibility": "critical",
        "base_accessibility": 74,
        "active_corridors": ["NH-2", "NH-29"]
      },
      "geometry": {
        "type": "Polygon",
        "coordinates": [
          [[93.90, 25.45], [94.35, 25.45], [94.35, 25.85], [93.90, 25.85], [93.90, 25.45]]
        ]
      }
    },
    {
      "type": "Feature",
      "properties": {
        "id": "MN-IMP",
        "name": "Imphal West",
        "state": "Manipur",
        "hq": "Imphal",
        "centroid": [93.9368, 24.8170],
        "elevation_m": 786,
        "slope_deg": 12.4,
        "flood_susceptibility": "high",
        "landslide_susceptibility": "moderate",
        "base_accessibility": 79,
        "active_corridors": ["NH-2", "NH-37"]
      },
      "geometry": {
        "type": "Polygon",
        "coordinates": [
          [[93.75, 24.65], [94.15, 24.65], [94.15, 25.05], [93.75, 25.05], [93.75, 24.65]]
        ]
      }
    },
    {
      "type": "Feature",
      "properties": {
        "id": "MZ-AIZ",
        "name": "Aizawl",
        "state": "Mizoram",
        "hq": "Aizawl",
        "centroid": [92.7176, 23.7307],
        "elevation_m": 1132,
        "slope_deg": 31.7,
        "flood_susceptibility": "low",
        "landslide_susceptibility": "critical",
        "base_accessibility": 67,
        "active_corridors": ["NH-306", "NH-54"]
      },
      "geometry": {
        "type": "Polygon",
        "coordinates": [
          [[92.50, 23.50], [92.95, 23.50], [92.95, 23.95], [92.50, 23.95], [92.50, 23.50]]
        ]
      }
    },
    {
      "type": "Feature",
      "properties": {
        "id": "TR-WST",
        "name": "West Tripura",
        "state": "Tripura",
        "hq": "Agartala",
        "centroid": [91.2868, 23.8315],
        "elevation_m": 35,
        "slope_deg": 3.8,
        "flood_susceptibility": "high",
        "landslide_susceptibility": "low",
        "base_accessibility": 91,
        "active_corridors": ["NH-8"]
      },
      "geometry": {
        "type": "Polygon",
        "coordinates": [
          [[91.10, 23.65], [91.50, 23.65], [91.50, 24.05], [91.10, 24.05], [91.10, 23.65]]
        ]
      }
    },
    {
      "type": "Feature",
      "properties": {
        "id": "SK-EAS",
        "name": "East Sikkim",
        "state": "Sikkim",
        "hq": "Gangtok",
        "centroid": [88.6138, 27.3389],
        "elevation_m": 1650,
        "slope_deg": 35.4,
        "flood_susceptibility": "low",
        "landslide_susceptibility": "critical",
        "base_accessibility": 71,
        "active_corridors": ["NH-10", "JN Marg"]
      },
      "geometry": {
        "type": "Polygon",
        "coordinates": [
          [[88.40, 27.15], [88.85, 27.15], [88.85, 27.55], [88.40, 27.55], [88.40, 27.15]]
        ]
      }
    },
    {
      "type": "Feature",
      "properties": {
        "id": "AS-CAC",
        "name": "Cachar",
        "state": "Assam",
        "hq": "Silchar",
        "centroid": [92.7976, 24.8333],
        "elevation_m": 22,
        "slope_deg": 5.1,
        "flood_susceptibility": "critical",
        "landslide_susceptibility": "low",
        "base_accessibility": 84,
        "active_corridors": ["NH-37", "NH-306"]
      },
      "geometry": {
        "type": "Polygon",
        "coordinates": [
          [[92.60, 24.60], [93.05, 24.60], [93.05, 25.05], [92.60, 25.05], [92.60, 24.60]]
        ]
      }
    },
    {
      "type": "Feature",
      "properties": {
        "id": "AS-DIB",
        "name": "Dibrugarh",
        "state": "Assam",
        "hq": "Dibrugarh",
        "centroid": [94.9120, 27.4728],
        "elevation_m": 108,
        "slope_deg": 2.4,
        "flood_susceptibility": "high",
        "landslide_susceptibility": "low",
        "base_accessibility": 93,
        "active_corridors": ["NH-15", "Bogibeel Corridor"]
      },
      "geometry": {
        "type": "Polygon",
        "coordinates": [
          [[94.70, 27.25], [95.20, 27.25], [95.20, 27.70], [94.70, 27.70], [94.70, 27.25]]
        ]
      }
    }
  ]
}
